{
    "week": 295,
    "satellites": [
        {
            "Name": "BEIDOU-3 M28 (C50)",
            "Line1": "1 58654U 23207A   24334.95937373 -.00000036  00000+0  00000+0 0  9992",
            "Line2": "2 58654  55.2510  81.4202 0002067 244.3137 115.6468  1.86232039  6331",
            "SatelliteNumber": "58654",
            "Classification": "U",
            "LaunchYear": "23",
            "LaunchNumber": "207",
            "PieceOfLaunch": "A",
            "EpochYear": "24",
            "EpochDay": 334.95937373,
            "FirstDerivativeMeanMotion": -3.6e-07,
            "SecondDerivativeMeanMotion": "00000+0",
            "BSTAR": "00000+0",
            "SetNumber": "999",
            "Inclination": 55.251,
            "RAAN": 81.4202,
            "Eccentricity": 0.0002067,
            "ArgumentOfPerigee": 244.3137,
            "MeanAnomaly": 115.6468,
            "MeanMotion": 1.86232039,
            "RevolutionNumber": "633"
        },
        {
            "Name": "BEIDOU-3 M26 (C48)",
            "Line1": "1 58655U 23207B   24334.75870794 -.00000037  00000+0  00000+0 0  9995",
            "Line2": "2 58655  55.2529  81.4127 0003469 234.9249 125.0242  1.86231567  6312",
            "SatelliteNumber": "58655",
            "Classification": "U",
            "LaunchYear": "23",
            "LaunchNumber": "207",
            "PieceOfLaunch": "B",
            "EpochYear": "24",
            "EpochDay": 334.75870794,
            "FirstDerivativeMeanMotion": -3.7e-07,
            "SecondDerivativeMeanMotion": "00000+0",
            "BSTAR": "00000+0",
            "SetNumber": "999",
            "Inclination": 55.2529,
            "RAAN": 81.4127,
            "Eccentricity": 0.0003469,
            "ArgumentOfPerigee": 234.9249,
            "MeanAnomaly": 125.0242,
            "MeanMotion": 1.86231567,
            "RevolutionNumber": "631"
        }
    ]
}